[
    {
        "Altitude(m)": 610399.5061458402,
        "Argument of Periapsis(deg)": 0.0,
        "Eccentricity": 0.0,
        "Inclination(deg)": 60.0,
        "Latitude(deg)": 52.111272341461806,
        "Longitude(deg)": -52.4157776500326,
        "Mean Anomaly(deg)": 65.4545,
        "RAAN(deg)": 0.0,
        "Satellite Name": "Test1 4",
        "Satellite Number": 4,
        "Semi-Major Axis(m)": 6980739.136638005,
        "Time(s)": 0
    },
    {
        "Altitude(m)": 610481.6576293864,
        "Argument of Periapsis(deg)": 0.00010418945913296404,
        "Eccentricity": 0.0,
        "Inclination(deg)": 60.0,
        "Latitude(deg)": 52.47087549640939,
        "Longitude(deg)": -51.63364361932945,
        "Mean Anomaly(deg)": 66.07460614546183,
        "RAAN(deg)": -0.0004200491397426661,
        "Satellite Name": "Test1 4",
        "Satellite Number": 4,
        "Semi-Major Axis(m)": 6980739.136638005,
        "Time(s)": 10
    },
    {
        "Altitude(m)": 610562.3479380136,
        "Argument of Periapsis(deg)": 0.0002083789182659281,
        "Eccentricity": 0.0,
        "Inclination(deg)": 60.0,
        "Latitude(deg)": 52.824631274981776,
        "Longitude(deg)": -50.83809661084234,
        "Mean Anomaly(deg)": 66.69471229092365,
        "RAAN(deg)": -0.0008400982794853322,
        "Satellite Name": "Test1 4",
        "Satellite Number": 4,
        "Semi-Major Axis(m)": 6980739.136638005,
        "Time(s)": 20
    },
    {
        "Altitude(m)": 610641.5296055949,
        "Argument of Periapsis(deg)": 0.00031256837739889213,
        "Eccentricity": 0.0,
        "Inclination(deg)": 60.0,
        "Latitude(deg)": 53.17237015076268,
        "Longitude(deg)": -50.02897211216508,
        "Mean Anomaly(deg)": 67.3148184363855,
        "RAAN(deg)": -0.0012601474192279983,
        "Satellite Name": "Test1 4",
        "Satellite Number": 4,
        "Semi-Major Axis(m)": 6980739.136638005,
        "Time(s)": 30
    },
    {
        "Altitude(m)": 610719.1561224485,
        "Argument of Periapsis(deg)": 0.0004167578365318562,
        "Eccentricity": 0.0,
        "Inclination(deg)": 60.0,
        "Latitude(deg)": 53.513919121408016,
        "Longitude(deg)": -49.20611722318449,
        "Mean Anomaly(deg)": 67.93492458184731,
        "RAAN(deg)": -0.0016801965589706644,
        "Satellite Name": "Test1 4",
        "Satellite Number": 4,
        "Semi-Major Axis(m)": 6980739.136638005,
        "Time(s)": 40
    },
    {
        "Altitude(m)": 610795.1819576672,
        "Argument of Periapsis(deg)": 0.0005209472956648203,
        "Eccentricity": 0.0,
        "Inclination(deg)": 60.0,
        "Latitude(deg)": 53.8491018306058,
        "Longitude(deg)": -48.3693930702559,
        "Mean Anomaly(deg)": 68.55503072730914,
        "RAAN(deg)": -0.0021002456987133304,
        "Satellite Name": "Test1 4",
        "Satellite Number": 4,
        "Semi-Major Axis(m)": 6980739.136638005,
        "Time(s)": 50
    },
    {
        "Altitude(m)": 610869.5625809598,
        "Argument of Periapsis(deg)": 0.0006251367547977843,
        "Eccentricity": 0.0,
        "Inclination(deg)": 60.0,
        "Latitude(deg)": 54.177738714362675,
        "Longitude(deg)": -47.518675773153284,
        "Mean Anomaly(deg)": 69.17513687277096,
        "RAAN(deg)": -0.0025202948384559967,
        "Satellite Name": "Test1 4",
        "Satellite Number": 4,
        "Semi-Major Axis(m)": 6980739.136638005,
        "Time(s)": 60
    },
    {
        "Altitude(m)": 610942.2544839652,
        "Argument of Periapsis(deg)": 0.0007293262139307483,
        "Eccentricity": 0.0,
        "Inclination(deg)": 60.0,
        "Latitude(deg)": 54.49964717327863,
        "Longitude(deg)": -46.65385747335877,
        "Mean Anomaly(deg)": 69.79524301823281,
        "RAAN(deg)": -0.0029403439781986625,
        "Satellite Name": "Test1 4",
        "Satellite Number": 4,
        "Semi-Major Axis(m)": 6980739.136638005,
        "Time(s)": 70
    },
    {
        "Altitude(m)": 611013.2152010809,
        "Argument of Periapsis(deg)": 0.0008335156730637124,
        "Eccentricity": 0.0,
        "Inclination(deg)": 60.0,
        "Latitude(deg)": 54.81464177243375,
        "Longitude(deg)": -45.77484893094676,
        "Mean Anomaly(deg)": 70.41534916369464,
        "RAAN(deg)": -0.0033603931179413287,
        "Satellite Name": "Test1 4",
        "Satellite Number": 4,
        "Semi-Major Axis(m)": 6980739.136638005,
        "Time(s)": 80
    },
    {
        "Altitude(m)": 611082.4033297611,
        "Argument of Periapsis(deg)": 0.0009377051321966765,
        "Eccentricity": 0.0,
        "Inclination(deg)": 60.0,
        "Latitude(deg)": 55.12253447044842,
        "Longitude(deg)": -44.88158065727579,
        "Mean Anomaly(deg)": 71.03545530915646,
        "RAAN(deg)": -0.003780442257683994,
        "Satellite Name": "Test1 4",
        "Satellite Number": 4,
        "Semi-Major Axis(m)": 6980739.136638005,
        "Time(s)": 90
    },
    {
        "Altitude(m)": 611149.7785503034,
        "Argument of Periapsis(deg)": 0.0010418945913296407,
        "Eccentricity": 0.0,
        "Inclination(deg)": 60.0,
        "Latitude(deg)": 55.423134879176224,
        "Longitude(deg)": -43.974004087770105,
        "Mean Anomaly(deg)": 71.6555614546183,
        "RAAN(deg)": -0.004200491397426661,
        "Satellite Name": "Test1 4",
        "Satellite Number": 4,
        "Semi-Major Axis(m)": 6980739.136638005,
        "Time(s)": 100
    },
    {
        "Altitude(m)": 611215.3016450867,
        "Argument of Periapsis(deg)": 0.0011460840504626045,
        "Eccentricity": 0.0,
        "Inclination(deg)": 60.0,
        "Latitude(deg)": 55.71625055535621,
        "Longitude(deg)": -43.05209429743592,
        "Mean Anomaly(deg)": 72.27566760008013,
        "RAAN(deg)": -0.004620540537169327,
        "Satellite Name": "Test1 4",
        "Satellite Number": 4,
        "Semi-Major Axis(m)": 6980739.136638005,
        "Time(s)": 110
    },
    {
        "Altitude(m)": 611278.9345172789,
        "Argument of Periapsis(deg)": 0.0012502735095955685,
        "Eccentricity": 0.0,
        "Inclination(deg)": 60.0,
        "Latitude(deg)": 56.00168732538598,
        "Longitude(deg)": -42.115851221423995,
        "Mean Anomaly(deg)": 72.89577374554196,
        "RAAN(deg)": -0.005040589676911993,
        "Satellite Name": "Test1 4",
        "Satellite Number": 4,
        "Semi-Major Axis(m)": 6980739.136638005,
        "Time(s)": 120
    },
    {
        "Altitude(m)": 611340.6402089762,
        "Argument of Periapsis(deg)": 0.0013544629687285324,
        "Eccentricity": 0.0,
        "Inclination(deg)": 60.0,
        "Latitude(deg)": 56.27924964416232,
        "Longitude(deg)": -41.16530087978852,
        "Mean Anomaly(deg)": 73.51587989100379,
        "RAAN(deg)": -0.005460638816654658,
        "Satellite Name": "Test1 4",
        "Satellite Number": 4,
        "Semi-Major Axis(m)": 6980739.136638005,
        "Time(s)": 130
    },
    {
        "Altitude(m)": 611400.3829188321,
        "Argument of Periapsis(deg)": 0.0014586524278614966,
        "Eccentricity": 0.0,
        "Inclination(deg)": 60.0,
        "Latitude(deg)": 56.54874098868071,
        "Longitude(deg)": -40.20049810378848,
        "Mean Anomaly(deg)": 74.13598603646562,
        "RAAN(deg)": -0.005880687956397325,
        "Satellite Name": "Test1 4",
        "Satellite Number": 4,
        "Semi-Major Axis(m)": 6980739.136638005,
        "Time(s)": 140
    },
    {
        "Altitude(m)": 611458.1280190509,
        "Argument of Periapsis(deg)": 0.0015628418869944607,
        "Eccentricity": 0.0,
        "Inclination(deg)": 60.0,
        "Latitude(deg)": 56.80996428679323,
        "Longitude(deg)": -39.221527720675596,
        "Mean Anomaly(deg)": 74.75609218192744,
        "RAAN(deg)": -0.006300737096139991,
        "Satellite Name": "Test1 4",
        "Satellite Number": 4,
        "Semi-Major Axis(m)": 6980739.136638005,
        "Time(s)": 150
    },
    {
        "Altitude(m)": 611513.842071883,
        "Argument of Periapsis(deg)": 0.0016670313461274247,
        "Eccentricity": 0.0,
        "Inclination(deg)": 60.0,
        "Latitude(deg)": 57.06272238117391,
        "Longitude(deg)": -38.22850569078355,
        "Mean Anomaly(deg)": 75.37619832738928,
        "RAAN(deg)": -0.0067207862358826575,
        "Satellite Name": "Test1 4",
        "Satellite Number": 4,
        "Semi-Major Axis(m)": 6980739.136638005,
        "Time(s)": 160
    },
    {
        "Altitude(m)": 611567.4928454926,
        "Argument of Periapsis(deg)": 0.0017712208052603888,
        "Eccentricity": 0.0,
        "Inclination(deg)": 60.0,
        "Latitude(deg)": 57.30681852815062,
        "Longitude(deg)": -37.22158168909458,
        "Mean Anomaly(deg)": 75.99630447285111,
        "RAAN(deg)": -0.007140835375625323,
        "Satellite Name": "Test1 4",
        "Satellite Number": 4,
        "Semi-Major Axis(m)": 6980739.136638005,
        "Time(s)": 170
    },
    {
        "Altitude(m)": 611619.0493292735,
        "Argument of Periapsis(deg)": 0.001875410264393353,
        "Eccentricity": 0.0,
        "Inclination(deg)": 60.0,
        "Latitude(deg)": 57.54205693063438,
        "Longitude(deg)": -36.20094008336592,
        "Mean Anomaly(deg)": 76.61641061831294,
        "RAAN(deg)": -0.007560884515367988,
        "Satellite Name": "Test1 4",
        "Satellite Number": 4,
        "Semi-Major Axis(m)": 6980739.136638005,
        "Time(s)": 180
    },
    {
        "Altitude(m)": 611668.48174854,
        "Argument of Periapsis(deg)": 0.0019795997235263173,
        "Eccentricity": 0.0,
        "Inclination(deg)": 60.0,
        "Latitude(deg)": 57.7682433038945,
        "Longitude(deg)": -35.166800798238604,
        "Mean Anomaly(deg)": 77.23651676377476,
        "RAAN(deg)": -0.007980933655110656,
        "Satellite Name": "Test1 4",
        "Satellite Number": 4,
        "Semi-Major Axis(m)": 6980739.136638005,
        "Time(s)": 190
    }
]